{"type": "FeatureCollection", "features": [ {"type": "Feature", "properties": {"norad_id": 35135, "name": "FENGYUN 1C DEB", "group": "fengyun-1c-debris", "lat": -35.8444321134386, "lon": 170.98544722470015, "alt_km": 796.4325740284239, "timestamp": "2025-12-14T11:29:50.347743+00:00", "meta": {"OBJECT_NAME": "FENGYUN 1C DEB", "OBJECT_ID": "1999-025DLP", "EPOCH": "2025-12-10T06:52:44.806944", "MEAN_MOTION": 14.22529436, "ECCENTRICITY": 0.0080993, "INCLINATION": 98.565, "RA_OF_ASC_NODE": 353.1608, "ARG_OF_PERICENTER": 291.6551, "MEAN_ANOMALY": 67.6016, "EPHEMERIS_TYPE": 0, "CLASSIFICATION_TYPE": "U", "NORAD_CAT_ID": 35135, "ELEMENT_SET_NO": 999, "REV_AT_EPOCH": 87789, "BSTAR": 0.00073581, "MEAN_MOTION_DOT": 1.655e-05, "MEAN_MOTION_DDOT": 0}, "tle": {"line1": "1 35135U 99025DLP 25344.28662971  .00001655  00000+0  73581-3 0  9994", "line2": "2 35135  98.5650 353.1608 0080993 291.6551  67.6016 14.22529436877899"}}, "geometry": {"type": "Point", "coordinates": [170.98544722470015, -35.8444321134386]}}, {"type": "Feature", "properties": {"norad_id": 35139, "name": "FENGYUN 1C DEB", "group": "fengyun-1c-debris", "lat": -58.13054451089948, "lon": 7.7108979324786135, "alt_km": 779.8522096324468, "timestamp": "2025-12-14T11:29:50.347755+00:00", "meta": {"OBJECT_NAME": "FENGYUN 1C DEB", "OBJECT_ID": "1999-025DLT", "EPOCH": "2025-11-29T06:46:18.583392", "MEAN_MOTION": 14.21054019, "ECCENTRICITY": 0.00685814, "INCLINATION": 98.5841, "RA_OF_ASC_NODE": 338.8823, "ARG_OF_PERICENTER": 336.9878, "MEAN_ANOMALY": 22.8231, "EPHEMERIS_TYPE": 0, "CLASSIFICATION_TYPE": "U", "NORAD_CAT_ID": 35139, "ELEMENT_SET_NO": 999, "REV_AT_EPOCH": 63962, "BSTAR": 0.00042081079, "MEAN_MOTION_DOT": 8.92e-06, "MEAN_MOTION_DDOT": 0}, "tle": {"line1": "1 35139U 99025DLT 25333.28215953  .00000892  00000+0  42081-3 0  9993", "line2": "2 35139  98.5841 338.8823 0068581 336.9878  22.8231 14.21054019639626"}}, "geometry": {"type": "Point", "coordinates": [7.7108979324786135, -58.13054451089948]}}, {"type": "Feature", "properties": {"norad_id": 35140, "name": "FENGYUN 1C DEB", "group": "fengyun-1c-debris", "lat": 32.93297869937859, "lon": -35.74126866450396, "alt_km": 748.1436351878474, "timestamp": "2025-12-14T11:29:50.347765+00:00", "meta": {"OBJECT_NAME": "FENGYUN 1C DEB", "OBJECT_ID": "1999-025DLU", "EPOCH": "2025-12-13T04:56:09.488832", "MEAN_MOTION": 14.21347484, "ECCENTRICITY": 0.0290603, "INCLINATION": 98.4462, "RA_OF_ASC_NODE": 328.5616, "ARG_OF_PERICENTER": 325.2882, "MEAN_ANOMALY": 32.963, "EPHEMERIS_TYPE": 0, "CLASSIFICATION_TYPE": "U", "NORAD_CAT_ID": 35140, "ELEMENT_SET_NO": 999, "REV_AT_EPOCH": 87285, "BSTAR": 0.00035818837, "MEAN_MOTION_DOT": 1.149e-05, "MEAN_MOTION_DDOT": 0}, "tle": {"line1": "1 35140U 99025DLU 25347.20566538  .00001149  00000+0  35819-3 0  9997", "line2": "2 35140  98.4462 328.5616 0290603 325.2882  32.9630 14.21347484872850"}}, "geometry": {"type": "Point", "coordinates": [-35.74126866450396, 32.93297869937859]}}, {"type": "Feature", "properties": {"norad_id": 35142, "name": "FENGYUN 1C DEB", "group": "fengyun-1c-debris", "lat": 49.35348358520544, "lon": 171.27948446840335, "alt_km": 907.3591662129147, "timestamp": "2025-12-14T11:29:50.347776+00:00", "meta": {"OBJECT_NAME": "FENGYUN 1C DEB", "OBJECT_ID": "1999-025DLW", "EPOCH": "2025-12-10T17:57:11.594304", "MEAN_MOTION": 13.90505391, "ECCENTRICITY": 0.01075768, "INCLINATION": 99.0447, "RA_OF_ASC_NODE": 336.9569, "ARG_OF_PERICENTER": 219.5001, "MEAN_ANOMALY": 324.8218, "EPHEMERIS_TYPE": 0, "CLASSIFICATION_TYPE": "U", "NORAD_CAT_ID": 35142, "ELEMENT_SET_NO": 999, "REV_AT_EPOCH": 85661, "BSTAR": 0.00028188701, "MEAN_MOTION_DOT": 3.24e-06, "MEAN_MOTION_DDOT": 0}, "tle": {"line1": "1 35142U 99025DLW 25344.74805086  .00000324  00000+0  28189-3 0  9995", "line2": "2 35142  99.0447 336.9569 0107576 219.5001 324.8218 13.90505391856615"}}, "geometry": {"type": "Point", "coordinates": [171.27948446840335, 49.35348358520544]}}, {"type": "Feature", "properties": {"norad_id": 35144, "name": "FENGYUN 1C DEB", "group": "fengyun-1c-debris", "lat": 75.41282325101696, "lon": -40.0498975926555, "alt_km": 693.2636312047352, "timestamp": "2025-12-14T11:29:50.347786+00:00", "meta": {"OBJECT_NAME": "FENGYUN 1C DEB", "OBJECT_ID": "1999-025DLY", "EPOCH": "2025-12-11T13:54:55.730016", "MEAN_MOTION": 14.59153521, "ECCENTRICITY": 0.0026594, "INCLINATION": 98.6992, "RA_OF_ASC_NODE": 100.875, "ARG_OF_PERICENTER": 5.3698, "MEAN_ANOMALY": 354.778, "EPHEMERIS_TYPE": 0, "CLASSIFICATION_TYPE": "U", "NORAD_CAT_ID": 35144, "ELEMENT_SET_NO": 999, "REV_AT_EPOCH": 65196, "BSTAR": 0.0041915394, "MEAN_MOTION_DOT": 0.00019845, "MEAN_MOTION_DDOT": 0}, "tle": {"line1": "1 35144U 99025DLY 25345.57981169  .00019845  00000+0  41915-2 0  9995", "line2": "2 35144  98.6992 100.8750 0026594   5.3698 354.7780 14.59153521651967"}}, "geometry": {"type": "Point", "coordinates": [-40.0498975926555, 75.41282325101696]}}, {"type": "Feature", "properties": {"norad_id": 35147, "name": "FENGYUN 1C DEB", "group": "fengyun-1c-debris", "lat": 25.497542299298743, "lon": 57.493100546943445, "alt_km": 664.9757552613337, "timestamp": "2025-12-14T11:29:50.347796+00:00", "meta": {"OBJECT_NAME": "FENGYUN 1C DEB", "OBJECT_ID": "1999-025DMB", "EPOCH": "2025-12-13T10:56:53.783520", "MEAN_MOTION": 14.7433766, "ECCENTRICITY": 0.00273439, "INCLINATION": 99.489, "RA_OF_ASC_NODE": 60.8722, "ARG_OF_PERICENTER": 196.8484, "MEAN_ANOMALY": 163.1814, "EPHEMERIS_TYPE": 0, "CLASSIFICATION_TYPE": "U", "NORAD_CAT_ID": 35147, "ELEMENT_SET_NO": 999, "REV_AT_EPOCH": 74315, "BSTAR": 0.0047661501, "MEAN_MOTION_DOT": 0.0003184, "MEAN_MOTION_DDOT": 0}, "tle": {"line1": "1 35147U 99025DMB 25347.45617805  .00031840  00000+0  47662-2 0  9994", "line2": "2 35147  99.4890  60.8722 0027343 196.8484 163.1814 14.74337660743150"}}, "geometry": {"type": "Point", "coordinates": [57.493100546943445, 25.497542299298743]}}, {"type": "Feature", "properties": {"norad_id": 35152, "name": "FENGYUN 1C DEB", "group": "fengyun-1c-debris", "lat": -43.334081719258464, "lon": -18.181887286061944, "alt_km": 1102.2896722650758, "timestamp": "2025-12-14T11:29:50.347806+00:00", "meta": {"OBJECT_NAME": "FENGYUN 1C DEB", "OBJECT_ID": "1999-025DMG", "EPOCH": "2025-12-09T06:32:50.767584", "MEAN_MOTION": 13.76426124, "ECCENTRICITY": 0.019481, "INCLINATION": 99.8191, "RA_OF_ASC_NODE": 165.8523, "ARG_OF_PERICENTER": 24.4192, "MEAN_ANOMALY": 336.6036, "EPHEMERIS_TYPE": 0, "CLASSIFICATION_TYPE": "U", "NORAD_CAT_ID": 35152, "ELEMENT_SET_NO": 999, "REV_AT_EPOCH": 62145, "BSTAR": 0.0008876, "MEAN_MOTION_DOT": 9.5e-06, "MEAN_MOTION_DDOT": 0}, "tle": {"line1": "1 35152U 99025DMG 25343.27280981  .00000950  00000+0  88760-3 0  9990", "line2": "2 35152  99.8191 165.8523 0194810  24.4192 336.6036 13.76426124621451"}}, "geometry": {"type": "Point", "coordinates": [-18.181887286061944, -43.334081719258464]}}, {"type": "Feature", "properties": {"norad_id": 35153, "name": "FENGYUN 1C DEB", "group": "fengyun-1c-debris", "lat": -28.99537608462352, "lon": -114.56475399740198, "alt_km": 688.3379861062886, "timestamp": "2025-12-14T11:29:50.347818+00:00", "meta": {"OBJECT_NAME": "FENGYUN 1C DEB", "OBJECT_ID": "1999-025DMH", "EPOCH": "2025-12-13T11:11:19.290336", "MEAN_MOTION": 14.73743597, "ECCENTRICITY": 0.01712095, "INCLINATION": 98.9023, "RA_OF_ASC_NODE": 239.3405, "ARG_OF_PERICENTER": 80.9224, "MEAN_ANOMALY": 281.131, "EPHEMERIS_TYPE": 0, "CLASSIFICATION_TYPE": "U", "NORAD_CAT_ID": 35153, "ELEMENT_SET_NO": 999, "REV_AT_EPOCH": 97228, "BSTAR": 0.00060411508, "MEAN_MOTION_DOT": 4.926e-05, "MEAN_MOTION_DDOT": 0}, "tle": {"line1": "1 35153U 99025DMH 25347.46619549  .00004926  00000+0  60412-3 0  9993", "line2": "2 35153  98.9023 239.3405 0171209  80.9224 281.1310 14.73743597972285"}}, "geometry": {"type": "Point", "coordinates": [-114.56475399740198, -28.99537608462352]}}, {"type": "Feature", "properties": {"norad_id": 35154, "name": "FENGYUN 1C DEB", "group": "fengyun-1c-debris", "lat": -65.6146346591975, "lon": 131.55484328380794, "alt_km": 867.3645920314193, "timestamp": "2025-12-14T11:29:50.347828+00:00", "meta": {"OBJECT_NAME": "FENGYUN 1C DEB", "OBJECT_ID": "1999-025DMJ", "EPOCH": "2025-12-13T13:48:37.186560", "MEAN_MOTION": 14.18899673, "ECCENTRICITY": 0.01793001, "INCLINATION": 99.4215, "RA_OF_ASC_NODE": 109.1082, "ARG_OF_PERICENTER": 40.1102, "MEAN_ANOMALY": 321.3151, "EPHEMERIS_TYPE": 0, "CLASSIFICATION_TYPE": "U", "NORAD_CAT_ID": 35154, "ELEMENT_SET_NO": 999, "REV_AT_EPOCH": 64589, "BSTAR": 0.00040128256, "MEAN_MOTION_DOT": 9.31e-06, "MEAN_MOTION_DDOT": 0}, "tle": {"line1": "1 35154U 99025DMJ 25347.57543040  .00000931  00000+0  40128-3 0  9992", "line2": "2 35154  99.4215 109.1082 0179300  40.1102 321.3151 14.18899673645893"}}, "geometry": {"type": "Point", "coordinates": [131.55484328380794, -65.6146346591975]}}, {"type": "Feature", "properties": {"norad_id": 35155, "name": "FENGYUN 1C DEB", "group": "fengyun-1c-debris", "lat": 56.45167265262793, "lon": -12.956943632393832, "alt_km": 803.81920160954, "timestamp": "2025-12-14T11:29:50.347843+00:00", "meta": {"OBJECT_NAME": "FENGYUN 1C DEB", "OBJECT_ID": "1999-025DMK", "EPOCH": "2025-12-13T11:32:29.448096", "MEAN_MOTION": 14.19285709, "ECCENTRICITY": 0.00260991, "INCLINATION": 98.5012, "RA_OF_ASC_NODE": 359.121, "ARG_OF_PERICENTER": 70.7543, "MEAN_ANOMALY": 289.6454, "EPHEMERIS_TYPE": 0, "CLASSIFICATION_TYPE": "U", "NORAD_CAT_ID": 35155, "ELEMENT_SET_NO": 999, "REV_AT_EPOCH": 72724, "BSTAR": 0.00090034288, "MEAN_MOTION_DOT": 1.854e-05, "MEAN_MOTION_DDOT": 0}, "tle": {"line1": "1 35155U 99025DMK 25347.48089639  .00001854  00000+0  90034-3 0  9998", "line2": "2 35155  98.5012 359.1210 0026099  70.7543 289.6454 14.19285709727245"}}, "geometry": {"type": "Point", "coordinates": [-12.956943632393832, 56.45167265262793]}}]}